CCSDS_OMM_VERS = 2.0
CREATION_DATE  = 
ORIGINATOR     = 

OBJECT_NAME    = STARLINK-35941
OBJECT_ID      = 2025-268AC
CENTER_NAME    = EARTH
REF_FRAME      = TEME
TIME_SYSTEM    = UTC
MEAN_ELEMENT_THEORY = SGP/SGP4

EPOCH          = 2025-12-28T20:00:01.000224
MEAN_MOTION    = 15.35163061
ECCENTRICITY   = .0001551
INCLINATION    = 43.0011
RA_OF_ASC_NODE = 26.9493
ARG_OF_PERICENTER = 276.5089
MEAN_ANOMALY   = 179.5703

EPHEMERIS_TYPE = 0
CLASSIFICATION_TYPE = U
NORAD_CAT_ID   = 66583
ELEMENT_SET_NO = 999
REV_AT_EPOCH   = 597
BSTAR          = -.64752E-1
MEAN_MOTION_DOT = -.2040653E-1
MEAN_MOTION_DDOT = 0

CCSDS_OMM_VERS = 2.0
CREATION_DATE  = 
ORIGINATOR     = 

OBJECT_NAME    = STARLINK-35939
OBJECT_ID      = 2025-268AD
CENTER_NAME    = EARTH
REF_FRAME      = TEME
TIME_SYSTEM    = UTC
MEAN_ELEMENT_THEORY = SGP/SGP4

EPOCH          = 2025-12-28T20:00:01.000224
MEAN_MOTION    = 15.35992062
ECCENTRICITY   = .0001588
INCLINATION    = 43.0010
RA_OF_ASC_NODE = 26.9111
ARG_OF_PERICENTER = 279.9825
MEAN_ANOMALY   = 191.7445

EPHEMERIS_TYPE = 0
CLASSIFICATION_TYPE = U
NORAD_CAT_ID   = 66584
ELEMENT_SET_NO = 999
REV_AT_EPOCH   = 603
BSTAR          = -.63245E-1
MEAN_MOTION_DOT = -.2012789E-1
MEAN_MOTION_DDOT = 0

CCSDS_OMM_VERS = 2.0
CREATION_DATE  = 
ORIGINATOR     = 

OBJECT_NAME    = STARLINK-35963
OBJECT_ID      = 2025-268AE
CENTER_NAME    = EARTH
REF_FRAME      = TEME
TIME_SYSTEM    = UTC
MEAN_ELEMENT_THEORY = SGP/SGP4

EPOCH          = 2025-12-28T20:00:01.000224
MEAN_MOTION    = 15.27585874
ECCENTRICITY   = .0001033
INCLINATION    = 43.0012
RA_OF_ASC_NODE = 27.5762
ARG_OF_PERICENTER = 272.1819
MEAN_ANOMALY   = 283.8786

EPHEMERIS_TYPE = 0
CLASSIFICATION_TYPE = U
NORAD_CAT_ID   = 66585
ELEMENT_SET_NO = 999
REV_AT_EPOCH   = 597
BSTAR          = -.90083E-4
MEAN_MOTION_DOT = -.274E-4
MEAN_MOTION_DDOT = 0

CCSDS_OMM_VERS = 2.0
CREATION_DATE  = 
ORIGINATOR     = 

OBJECT_NAME    = TJS-21
OBJECT_ID      = 2025-269A
CENTER_NAME    = EARTH
REF_FRAME      = TEME
TIME_SYSTEM    = UTC
MEAN_ELEMENT_THEORY = SGP/SGP4

EPOCH          = 2025-12-22T16:41:16.797984
MEAN_MOTION    = 2.00587444
ECCENTRICITY   = .68076174
INCLINATION    = 63.2754
RA_OF_ASC_NODE = 161.3014
ARG_OF_PERICENTER = 269.7248
MEAN_ANOMALY   = 18.6681

EPHEMERIS_TYPE = 0
CLASSIFICATION_TYPE = U
NORAD_CAT_ID   = 66586
ELEMENT_SET_NO = 999
REV_AT_EPOCH   = 63
BSTAR          = -.73521313E-1
MEAN_MOTION_DOT = .1087E-4
MEAN_MOTION_DDOT = 0

CCSDS_OMM_VERS = 2.0
CREATION_DATE  = 
ORIGINATOR     = 

OBJECT_NAME    = STARLINK-36076
OBJECT_ID      = 2025-270A
CENTER_NAME    = EARTH
REF_FRAME      = TEME
TIME_SYSTEM    = UTC
MEAN_ELEMENT_THEORY = SGP/SGP4

EPOCH          = 2025-12-28T14:53:37.447584
MEAN_MOTION    = 15.40749220
ECCENTRICITY   = .000132
INCLINATION    = 43.0003
RA_OF_ASC_NODE = 101.2796
ARG_OF_PERICENTER = 280.2421
MEAN_ANOMALY   = 79.8286

EPHEMERIS_TYPE = 0
CLASSIFICATION_TYPE = U
NORAD_CAT_ID   = 66588
ELEMENT_SET_NO = 999
REV_AT_EPOCH   = 679
BSTAR          = .11424E-2
MEAN_MOTION_DOT = .47797E-3
MEAN_MOTION_DDOT = 0

CCSDS_OMM_VERS = 2.0
CREATION_DATE  = 
ORIGINATOR     = 

OBJECT_NAME    = STARLINK-35447
OBJECT_ID      = 2025-270B
CENTER_NAME    = EARTH
REF_FRAME      = TEME
TIME_SYSTEM    = UTC
MEAN_ELEMENT_THEORY = SGP/SGP4

EPOCH          = 2025-12-28T16:01:10.638336
MEAN_MOTION    = 15.40710665
ECCENTRICITY   = .0000877
INCLINATION    = 43.0003
RA_OF_ASC_NODE = 100.7658
ARG_OF_PERICENTER = 241.8836
MEAN_ANOMALY   = 118.1932

EPHEMERIS_TYPE = 0
CLASSIFICATION_TYPE = U
NORAD_CAT_ID   = 66589
ELEMENT_SET_NO = 999
REV_AT_EPOCH   = 691
BSTAR          = .41897E-3
MEAN_MOTION_DOT = .17243E-3
MEAN_MOTION_DDOT = 0

CCSDS_OMM_VERS = 2.0
CREATION_DATE  = 
ORIGINATOR     = 

OBJECT_NAME    = STARLINK-35429
OBJECT_ID      = 2025-270C
CENTER_NAME    = EARTH
REF_FRAME      = TEME
TIME_SYSTEM    = UTC
MEAN_ELEMENT_THEORY = SGP/SGP4

EPOCH          = 2025-12-28T15:38:35.547648
MEAN_MOTION    = 15.40699291
ECCENTRICITY   = .0001283
INCLINATION    = 43.0010
RA_OF_ASC_NODE = 100.6459
ARG_OF_PERICENTER = 278.0620
MEAN_ANOMALY   = 82.0091

EPHEMERIS_TYPE = 0
CLASSIFICATION_TYPE = U
NORAD_CAT_ID   = 66590
ELEMENT_SET_NO = 999
REV_AT_EPOCH   = 691
BSTAR          = .16845E-2
MEAN_MOTION_DOT = .70715E-3
MEAN_MOTION_DDOT = 0

CCSDS_OMM_VERS = 2.0
CREATION_DATE  = 
ORIGINATOR     = 

OBJECT_NAME    = STARLINK-36058
OBJECT_ID      = 2025-270D
CENTER_NAME    = EARTH
REF_FRAME      = TEME
TIME_SYSTEM    = UTC
MEAN_ELEMENT_THEORY = SGP/SGP4

EPOCH          = 2025-12-28T15:16:00.651360
MEAN_MOTION    = 15.40693152
ECCENTRICITY   = .0001088
INCLINATION    = 42.9991
RA_OF_ASC_NODE = 100.5251
ARG_OF_PERICENTER = 293.4290
MEAN_ANOMALY   = 66.6452

EPHEMERIS_TYPE = 0
CLASSIFICATION_TYPE = U
NORAD_CAT_ID   = 66591
ELEMENT_SET_NO = 999
REV_AT_EPOCH   = 680
BSTAR          = .16728E-2
MEAN_MOTION_DOT = .70201E-3
MEAN_MOTION_DDOT = 0

CCSDS_OMM_VERS = 2.0
CREATION_DATE  = 
ORIGINATOR     = 

OBJECT_NAME    = STARLINK-36066
OBJECT_ID      = 2025-270E
CENTER_NAME    = EARTH
REF_FRAME      = TEME
TIME_SYSTEM    = UTC
MEAN_ELEMENT_THEORY = SGP/SGP4

EPOCH          = 2025-12-28T16:14:05.093376
MEAN_MOTION    = 15.40832160
ECCENTRICITY   = .0001225
INCLINATION    = 43.0006
RA_OF_ASC_NODE = 100.8355
ARG_OF_PERICENTER = 306.9259
MEAN_ANOMALY   = 53.1485

EPHEMERIS_TYPE = 0
CLASSIFICATION_TYPE = U
NORAD_CAT_ID   = 66592
ELEMENT_SET_NO = 999
REV_AT_EPOCH   = 670
BSTAR          = .14468E-2
MEAN_MOTION_DOT = .60884E-3
MEAN_MOTION_DDOT = 0

CCSDS_OMM_VERS = 2.0
CREATION_DATE  = 
ORIGINATOR     = 

OBJECT_NAME    = STARLINK-36031
OBJECT_ID      = 2025-270F
CENTER_NAME    = EARTH
REF_FRAME      = TEME
TIME_SYSTEM    = UTC
MEAN_ELEMENT_THEORY = SGP/SGP4

EPOCH          = 2025-12-28T15:51:29.037600
MEAN_MOTION    = 15.40735829
ECCENTRICITY   = .0003783
INCLINATION    = 43.0066
RA_OF_ASC_NODE = 100.7132
ARG_OF_PERICENTER = 258.7315
MEAN_ANOMALY   = 101.3116

EPHEMERIS_TYPE = 0
CLASSIFICATION_TYPE = U
NORAD_CAT_ID   = 66593
ELEMENT_SET_NO = 999
REV_AT_EPOCH   = 680
BSTAR          = .1816E-2
MEAN_MOTION_DOT = .76422E-3
MEAN_MOTION_DDOT = 0

CCSDS_OMM_VERS = 2.0
CREATION_DATE  = 
ORIGINATOR     = 

OBJECT_NAME    = STARLINK-36032
OBJECT_ID      = 2025-270G
CENTER_NAME    = EARTH
REF_FRAME      = TEME
TIME_SYSTEM    = UTC
MEAN_ELEMENT_THEORY = SGP/SGP4

EPOCH          = 2025-12-28T15:25:40.592352
MEAN_MOTION    = 15.40732834
ECCENTRICITY   = .0001425
INCLINATION    = 42.9992
RA_OF_ASC_NODE = 100.5756
ARG_OF_PERICENTER = 287.3801
MEAN_ANOMALY   = 72.6899

EPHEMERIS_TYPE = 0
CLASSIFICATION_TYPE = U
NORAD_CAT_ID   = 66594
ELEMENT_SET_NO = 999
REV_AT_EPOCH   = 661
BSTAR          = .13058E-2
MEAN_MOTION_DOT = .54693E-3
MEAN_MOTION_DDOT = 0

CCSDS_OMM_VERS = 2.0
CREATION_DATE  = 
ORIGINATOR     = 

OBJECT_NAME    = STARLINK-35711
OBJECT_ID      = 2025-270H
CENTER_NAME    = EARTH
REF_FRAME      = TEME
TIME_SYSTEM    = UTC
MEAN_ELEMENT_THEORY = SGP/SGP4

EPOCH          = 2025-12-28T07:16:20.248896
MEAN_MOTION    = 15.40759732
ECCENTRICITY   = .0000883
INCLINATION    = 42.9965
RA_OF_ASC_NODE = 102.3208
ARG_OF_PERICENTER = 148.1977
MEAN_ANOMALY   = 211.8932

EPHEMERIS_TYPE = 0
CLASSIFICATION_TYPE = U
NORAD_CAT_ID   = 66595
ELEMENT_SET_NO = 999
REV_AT_EPOCH   = 686
BSTAR          = .16836E-2
MEAN_MOTION_DOT = .7082E-3
MEAN_MOTION_DDOT = 0

CCSDS_OMM_VERS = 2.0
CREATION_DATE  = 
ORIGINATOR     = 

OBJECT_NAME    = STARLINK-35811
OBJECT_ID      = 2025-270J
CENTER_NAME    = EARTH
REF_FRAME      = TEME
TIME_SYSTEM    = UTC
MEAN_ELEMENT_THEORY = SGP/SGP4

EPOCH          = 2025-12-28T13:13:49.429056
MEAN_MOTION    = 15.40692367
ECCENTRICITY   = .0001868
INCLINATION    = 43.0016
RA_OF_ASC_NODE = 101.6176
ARG_OF_PERICENTER = 275.9356
MEAN_ANOMALY   = 84.1287

EPHEMERIS_TYPE = 0
CLASSIFICATION_TYPE = U
NORAD_CAT_ID   = 66596
ELEMENT_SET_NO = 999
REV_AT_EPOCH   = 689
BSTAR          = .16157E-2
MEAN_MOTION_DOT = .67774E-3
MEAN_MOTION_DDOT = 0

CCSDS_OMM_VERS = 2.0
CREATION_DATE  = 
ORIGINATOR     = 

OBJECT_NAME    = STARLINK-35820
OBJECT_ID      = 2025-270K
CENTER_NAME    = EARTH
REF_FRAME      = TEME
TIME_SYSTEM    = UTC
MEAN_ELEMENT_THEORY = SGP/SGP4

EPOCH          = 2025-12-28T06:47:29.967072
MEAN_MOTION    = 15.40746568
ECCENTRICITY   = .0001231
INCLINATION    = 42.9994
RA_OF_ASC_NODE = 103.0409
ARG_OF_PERICENTER = 240.4150
MEAN_ANOMALY   = 119.6583

EPHEMERIS_TYPE = 0
CLASSIFICATION_TYPE = U
NORAD_CAT_ID   = 66597
ELEMENT_SET_NO = 999
REV_AT_EPOCH   = 685
BSTAR          = .14366E-2
MEAN_MOTION_DOT = .60276E-3
MEAN_MOTION_DDOT = 0

CCSDS_OMM_VERS = 2.0
CREATION_DATE  = 
ORIGINATOR     = 

OBJECT_NAME    = STARLINK-35981
OBJECT_ID      = 2025-270L
CENTER_NAME    = EARTH
REF_FRAME      = TEME
TIME_SYSTEM    = UTC
MEAN_ELEMENT_THEORY = SGP/SGP4

EPOCH          = 2025-12-28T15:45:02.304288
MEAN_MOTION    = 15.40697494
ECCENTRICITY   = .000186
INCLINATION    = 43.0030
RA_OF_ASC_NODE = 100.6823
ARG_OF_PERICENTER = 271.5864
MEAN_ANOMALY   = 88.4779

EPHEMERIS_TYPE = 0
CLASSIFICATION_TYPE = U
NORAD_CAT_ID   = 66598
ELEMENT_SET_NO = 999
REV_AT_EPOCH   = 665
BSTAR          = .68561E-3
MEAN_MOTION_DOT = .28441E-3
MEAN_MOTION_DDOT = 0

